{
    "links": {
        "self": "http://www.neowsapp.com/rest/v1/neo/3763423?api_key=iIulBulltgU6a56xZRHN4H3l9WmuAYTsLGpBGhQ2"
    },
    "id": "3763423",
    "neo_reference_id": "3763423",
    "name": "(2016 VK2)",
    "designation": "2016 VK2",
    "nasa_jpl_url": "http://ssd.jpl.nasa.gov/sbdb.cgi?sstr=3763423",
    "absolute_magnitude_h": 25.0,
    "estimated_diameter": {
        "kilometers": {
            "estimated_diameter_min": 0.02658,
            "estimated_diameter_max": 0.0594346868
        },
        "meters": {
            "estimated_diameter_min": 26.58,
            "estimated_diameter_max": 59.4346868419
        },
        "miles": {
            "estimated_diameter_min": 0.0165160412,
            "estimated_diameter_max": 0.0369309908
        },
        "feet": {
            "estimated_diameter_min": 87.2047272,
            "estimated_diameter_max": 194.9956979785
        }
    },
    "is_potentially_hazardous_asteroid": false,
    "close_approach_data": [
        {
            "close_approach_date": "2016-11-16",
            "close_approach_date_full": "2016-Nov-16 21:59",
            "epoch_date_close_approach": 1479333540000,
            "relative_velocity": {
                "kilometers_per_second": "15.5117172322",
                "kilometers_per_hour": "55842.1820357645",
                "miles_per_hour": "34698.1602766115"
            },
            "miss_distance": {
                "astronomical": "0.029135997",
                "lunar": "11.333902833",
                "kilometers": "4358683.09152639",
                "miles": "2708360.084748582"
            },
            "orbiting_body": "Earth"
        }
    ],
    "orbital_data": {
        "orbit_id": "4",
        "orbit_determination_date": "2017-04-06 08:22:23",
        "first_observation_date": "2016-11-06",
        "last_observation_date": "2016-11-11",
        "data_arc_in_days": 5,
        "observations_used": 24,
        "orbit_uncertainty": "8",
        "minimum_orbit_intersection": ".0213932",
        "jupiter_tisserand_invariant": "3.855",
        "epoch_osculation": "2457700.5",
        "eccentricity": ".6020235026085228",
        "semi_major_axis": "1.781222973963687",
        "inclination": "2.6363743193135",
        "ascending_node_longitude": "261.1140811441923",
        "orbital_period": "868.3121116418548",
        "perihelion_distance": ".7088848802512985",
        "perihelion_argument": "227.6031697751656",
        "aphelion_distance": "2.853561067676075",
        "perihelion_time": "2457754.979029356947",
        "mean_anomaly": "337.4131325527447",
        "mean_motion": ".4145974646366399",
        "equinox": "J2000",
        "orbit_class": {
            "orbit_class_type": "APO",
            "orbit_class_description": "Near-Earth asteroid orbits which cross the Earth’s orbit similar to that of 1862 Apollo",
            "orbit_class_range": "a (semi-major axis) > 1.0 AU; q (perihelion) < 1.017 AU"
        }
    },
    "is_sentry_object": false
}